OPS 6582 (TRANSIT 5B-5) 
1 00965U 64083D   23314.62430201  .00000098  00000+0  12416-3 0  9995
2 00965  90.0418 197.2851 0041291 172.0114 249.6516 13.56847365914836
LES-1                   
1 01002U 65008C   23314.22680440  .00000005  00000+0 -38290-3 0  9991
2 01002  32.1384 135.1139 0013844  78.0481 282.1567  9.88354156122204
SOLRAD 7B               
1 01291U 65016D   23314.81382092  .00000105  00000+0  11726-3 0  9992
2 01291  70.0781  94.3106 0023858 285.5344  74.3127 13.94733730984801
SECOR 4 (EGRS 4)        
1 01315U 65027B   23314.12256348  .00000091  00000+0  30739-3 0  9998
2 01315  90.2440 354.4651 0031797 158.2154 256.4946 12.92633283764183
TIROS 10                
1 01430U 65051A   23314.58618702  .00000431  00000+0  14576-3 0  9998
2 01430  98.4205  67.5965 0056962  52.3711 308.2628 14.40722706 59133
ALOUETTE 2              
1 01804U 65098A   23314.55564985  .00000993  00000+0  32722-3 0  9990
2 01804  79.8041   3.4923 1337417 355.6608   3.3727 12.26661121562759
OV3-3                   
1 02389U 66070A   23314.79544161  .00012707  00000+0  64974-3 0  9990
2 02389  81.3360  68.2998 1149640  43.4773 325.1393 13.13399436472775
SECOR 7 (EGRS 7)        
1 02411U 66077B   23314.29625327 -.00000014  00000+0 -79368-2 0  9994
2 02411  90.3203 266.4130 0015518 297.6634  62.2642  8.59616018795755
ERS 15                  
1 02412U 66077C   23314.28386078  .00000002  00000+0  00000+0 0  9990
2 02412  90.3205 266.2155 0009033 304.8301  55.1700  8.59076135308880
ISIS 1                  
1 03669U 69009A   23314.29053879  .00000780  00000+0  55282-3 0  9993
2 03669  88.4248 248.5365 1710985   5.2970 356.3840 11.29774128252478
SECOR 13 (EGRS 13)      
1 03891U 69037B   23314.65446109 -.00000003  00000+0  70433-4 0  9998
2 03891  99.7756 204.9437 0040179  58.2106 356.8998 13.42912005674763
ATS 5                   
1 04068U 69069A   23314.53488071 -.00000144  00000+0  00000+0 0  9995
2 04068   2.4058 272.8148 0003764 336.4435 279.3936  0.99490004125461
OPS 7613 (P/L 4)        
1 04237U 69082E   23314.49373497  .00000142  00000+0  14262-3 0  9994
2 04237  70.0151 332.2208 0023495 286.2267 236.7836 13.95696759753772
OPS 7613 (P/L 1)        
1 04256U 69082B   23314.78493104  .00000237  00000+0  20162-3 0  9996
2 04256  70.0098 203.7543 0021662 233.6341 126.2767 13.98661075757686
SHINSEI (MS-F2)         
1 05485U 71080A   23314.20988256  .00000033  00000+0 -11476-5 0  9991
2 05485  32.0573 253.4720 0640582 238.1311 115.5386 12.74175726428039
PROSPERO (BLACK ARROW)  
1 05580U 71093A   23314.59992505  .00001459  00000+0  31848-3 0  9990
2 05580  82.0439  41.4648 0520492  61.3758 303.8738 13.96938171615704
OPS 7898 (P/L 2)        
1 05680U 71110C   23314.62544042  .00000054  00000+0  10972-3 0  9999
2 05680  69.9881 162.3093 0010664 278.1422  81.8462 13.74606186217718
NOAA 2 (ITOS-D)         
1 06235U 72082A   23314.86703538 -.00000006  00000+0  25382-3 0  9997
2 06235 102.0053 306.4259 0003927 175.8866 245.3835 12.53170396336267
EXPLORER 50 (IMP-8)     
1 06893U 73078A   23303.86509834 -.00001763  00000+0  00000+0 0  9991
2 06893  17.5917 271.2668 1650151 218.3198 352.9542  0.08053806 11104
OSCAR 7 (AO-7)          
1 07530U 74089B   23314.63271336 -.00000018  00000+0  17914-3 0  9991
2 07530 101.9635 302.3766 0012277 142.5705 338.6985 12.53669089241527
TIROS N                 
1 11060U 78096A   23314.59417897  .00000374  00000+0  20062-3 0  9997
2 11060  98.5654 357.8589 0011604 108.9491 251.2944 14.18669357544073
PHASE 3B (AO-10)        
1 14129U 83058B   23313.43988718  .00000081  00000+0  00000+0 0  9998
2 14129  27.4501  13.9368 6036539 219.1249  76.0596  2.05869070275912
HILAT                   
1 14154U 83063A   23314.77734073  .00000900  00000+0  29505-3 0  9998
2 14154  82.0230 322.7996 0038783 285.7252 248.0130 14.37183495111398
UOSAT 2 (UO-11)         
1 14781U 84021B   23314.52565420  .00002874  00000+0  33795-3 0  9998
2 14781  97.6767 285.9898 0009881  82.1020 278.1317 14.85577368115867
NOAA 9                  
1 15427U 84123A   23314.57930205  .00000336  00000+0  19197-3 0  9992
2 15427  99.1051 301.8233 0015170 154.4385 314.1811 14.16451959  8956
GEOSAT                  
1 15595U 85021A   23314.77846896  .00000659  00000+0  25822-3 0  9990
2 15595 108.0571 266.2902 0002681 275.5673  84.5163 14.38747661 26459
EUTELSAT 1-F4 (ECS 4)   
1 18351U 87078B   23314.39956039 -.00000217  00000+0  00000+0 0  9994
2 18351  14.5089 348.9035 0006807  27.7631 142.9130  0.98690235117388
AKEBONO (EXOS-D)        
1 19822U 89016A   23314.43495572  .00244740  75680-5  23015-2 0  9993
2 19822  74.9522 217.6035 1043834 339.8436  16.4161 13.66136342195555
PACSAT (AO-16)          
1 20439U 90005D   23314.58567431  .00000413  00000+0  16724-3 0  9994
2 20439  98.8948 308.6629 0011549 131.2733 344.2493 14.33208912765875
LUSAT (LO-19)           
1 20442U 90005G   23314.83827803  .00000404  00000+0  16334-3 0  9995
2 20442  98.8626 294.6240 0012744 107.0990 253.1591 14.33364275766412
IRS-1B                  
1 21688U 91061A   23314.57959904  .00000310  00000+0  25237-3 0  9998
2 21688  99.3374 285.7633 0025372  66.5326  46.0299 13.97544038535831
COSMOS 2197             
1 22034U 92042A   23314.56036633  .00000044  00000+0  18294-3 0  9997
2 22034  82.5901 115.7468 0011686 274.5564 150.5080 12.64204758445297
PEGASUS R/B             
1 22491U 93009C   23314.31411321  .00002233  00000+0  45962-3 0  9996
2 22491  24.9785 294.1199 0046224 325.1633  34.5857 14.54759946630994
EYESAT A (AO-27)        
1 22825U 93061C   23314.41001926  .00000296  00000+0  13155-3 0  9998
2 22825  98.8233 359.5321 0008477   8.7948 351.3381 14.30377310571190
ITAMSAT (IO-26)         
1 22826U 93061D   23314.72586458  .00000318  00000+0  13878-3 0  9998
2 22826  98.8178 359.7139 0008711 352.8560   7.2496 14.30746564571760
RADIO ROSTO (RS-15)     
1 23439U 94085A   23314.60634801 -.00000046  00000+0 -99937-4 0  9990
2 23439  64.8200  38.8789 0157848 184.3049 175.6524 11.27575714188836
JAS-2 (FO-29)           
1 24278U 96046B   23314.81518416  .00000065  00000+0  10082-3 0  9999
2 24278  98.5518 273.5184 0350796  36.7825 325.6841 13.53160884345013
FORTE                   
1 24920U 97047A   23314.56367026  .00000468  00000+0  21559-3 0  9994
2 24920  69.9550 357.3773 0020065 137.9119 222.3548 14.26917285363162
NOAA 15                 
1 25338U 98030A   23314.83505399  .00000341  00000+0  15954-3 0  9990
2 25338  98.5934 341.3066 0009390 242.7012 117.3213 14.26431217326160
TECHSAT 1B (GO-32)      
1 25397U 98043D   23314.45005549  .00000257  00000+0  13194-3 0  9999
2 25397  98.8902 273.3043 0002360  79.6751 280.4693 14.23940400316146
ISS (ZARYA)             
1 25544U 98067A   23314.95000145  .00015639  00000+0  28933-3 0  9998
2 25544  51.6448 321.5871 0001215 297.8843 137.3429 15.49211043424556
ORSTED                  
1 25635U 99008B   23314.82870551  .00000995  00000+0  23903-3 0  9998
2 25635  96.4829  65.1891 0135934 348.5221  11.2886 14.49388002304597
LANDSAT 7               
1 25682U 99020A   23314.86985966  .00000870  00000+0  18916-3 0  9995
2 25682  97.9140 346.7770 0001134  82.3739  90.4957 14.60323121307186
ORBCOMM FM36            
1 25984U 99065E   23314.74970455  .00001955  00000+0  73154-3 0  9993
2 25984  45.0409 332.7042 0005458 256.1016 103.9225 14.34838413250981
DMSP 5D-3 F15 (USA 147) 
1 25991U 99067A   23314.61289506  .00000392  00000+0  21889-3 0  9991
2 25991  99.0730 320.7647 0010078 173.8564 294.2768 14.16842193236148
OPAL (OO-38)            
1 26063U 00004C   23314.52154617  .00000519  00000+0  19310-3 0  9996
2 26063 100.1906  59.2016 0036133 195.9532 164.0513 14.37143768246836
IMAGE                   
1 26113U 00017A   23313.21339523  .00000066  00000+0 -14361+0 0  9997
2 26113  94.6388 299.9049 7351950  40.5653 355.5092  1.68652831145467
CLUSTER II-FM7 (SAMBA)  
1 26410U 00041A   23314.97921993  .00000587  00000+0  00000+0 0  9998
2 26410 137.2069 354.1253 6904486 208.5603   0.8889  0.44214499 16082
CLUSTER II-FM6 (SALSA)  
1 26411U 00041B   23312.71956619  .00000472  00000+0  00000+0 0  9995
2 26411 143.5923   6.8115 8558253 220.8935   0.7552  0.44199361 27138
CLUSTER II-FM5 (RUMBA)  
1 26463U 00045A   23314.97736430  .00000895  00000+0  00000+0 0  9992
2 26463 146.3589   5.7813 8059375 220.6307   0.8734  0.44220937 16011
CLUSTER II-FM8 (TANGO)  
1 26464U 00045B   23314.97892766  .00000587  00000+0  00000+0 0  9996
2 26464 137.2066 354.1128 6903694 208.5706   0.8514  0.44220751 16097
MEGSAT-1                
1 26546U 00057B   23314.05307750  .00004175  00000+0  38861-3 0  9990
2 26546  64.5546 210.3361 0041731 249.2087 110.4552 14.95014582255097
PHASE 3D (AO-40)        
1 26609U 00072B   23314.08629516 -.00000193  00000+0  00000+0 0  9994
2 26609   6.1387 154.7784 7917899 218.5711  43.5918  1.25587735105572
ODIN                    
1 26702U 01007A   23314.79268425  .00010700  00000+0  54080-3 0  9998
2 26702  97.4974 326.6954 0007714 337.9478  22.1423 15.17218377244190
OMNI-M1                 
1 26857U 01026A   23308.99491975  .00000005  00000+0  00000+0 0  9999
2 26857  44.8499 104.9161 0017140 170.5394 189.5208  3.92402784168087
PCSAT (NO-44)           
1 26931U 01043C   23313.99807774  .00000402  00000+0  18387-3 0  9997
2 26931  67.0500 180.3004 0006217 256.8259 103.2149 14.31037669154448
PROBA-1                 
1 26958U 01049B   23314.75674765  .00003407  00000+0  27026-3 0  9997
2 26958  97.8943 282.7012 0069209  75.7504 285.1392 14.99340244200998
SPOT 5                  
1 27421U 02021A   23314.73744930  .00000754  00000+0  17406-3 0  9997
2 27421  98.1223  13.3391 0133002 341.6788  17.9642 14.52874997124911
FENGYUN 1D              
1 27431U 02024B   23314.81805461  .00000221  00000+0  15125-3 0  9992
2 27431  99.0849 346.6599 0015926  31.9896 328.2237 14.09908899105751
